{
  "type": "FeatureCollection",
  "features": [
    {
      "type": "Feature",
      "properties": {
        "id": "179b6143-62a8-47cb-80ef-c9d2767ce3bd",
        "zone_slug": "zone_interdite_heysham",
        "pays": "France",
        "portion_source": "La Zone Interdite de Heysham couvre le littoral Manche-Atlantique de la France, de Calais à Lorient, incluant la vallée de la Seine et les régions frontalières du Hainaut."
      },
      "geometry": {
        "coordinates": [
          [
            [
              2.8125,
              50.317408
            ],
            [
              1.450195,
              49.468124
            ],
            [
              -0.615234,
              48.429201
            ],
            [
              -1.494141,
              47.783635
            ],
            [
              -2.373047,
              47.189712
            ],
            [
              -2.3985079072700506,
              47.18289354002699
            ],
            [
              -2.963276,
              47.570327
            ],
            [
              -4.491555,
              47.954954
            ],
            [
              -4.59235,
              48.68416
            ],
            [
              -3.295814,
              48.901692
            ],
            [
              -1.616511,
              48.644421
            ],
            [
              -1.933494,
              49.776342
            ],
            [
              -0.989469,
              49.347376
            ],
            [
              1.338761,
              50.127173
            ],
            [
              1.639001,
              50.946606
            ],
            [
              2.513573,
              51.148506
            ],
            [
              2.658422,
              50.796848
            ],
            [
              3.123252,
              50.780363
            ],
            [
              3.3116268230559625,
              50.61774095827176
            ],
            [
              2.8125,
              50.317408
            ]
          ]
        ],
        "type": "Polygon"
      }
    },
    {
      "type": "Feature",
      "properties": {
        "id": "ad61ee6b-9b0e-414e-abd5-7ff048e12820",
        "zone_slug": "espace_nordique_arctique",
        "pays": "Russie",
        "portion_source": null
      },
      "geometry": {
        "coordinates": [
          [
            [
              22.72425376721865,
              54.327481117023694
            ],
            [
              20.892245,
              54.312525
            ],
            [
              19.66064,
              54.426084
            ],
            [
              19.888481,
              54.86616
            ],
            [
              21.268449,
              55.190482
            ],
            [
              22.315724,
              55.015299
            ],
            [
              22.757764,
              54.856574
            ],
            [
              22.651052,
              54.582741
            ],
            [
              22.709868262214567,
              54.39522434875502
            ],
            [
              22.72425376721865,
              54.327481117023694
            ]
          ]
        ],
        "type": "Polygon"
      }
    }
  ]
}